IRIDIUM 26              
1 24903U 97043A   25222.14601781  .00000355  00000+0  11263-3 0  9990
2 24903  86.3916  87.9488 0001950  86.7752 273.3668 14.37178507464964
IRIDIUM 22              
1 24907U 97043E   25221.56304313  .00000324  00000+0  10481-3 0  9997
2 24907  86.3926  91.7817 0002087  89.3687 270.7749 14.35986970464427
DUMMY MASS 1            
1 24925U 97048A   25222.11771805  .00000416  00000+0  43270-4 0  9993
2 24925  86.3341 110.3985 0005250 334.8580  25.2388 14.87023863513389
DUMMY MASS 2            
1 24926U 97048B   25222.15615875  .00000400  00000+0  41757-4 0  9993
2 24926  86.3343 111.9985 0006462 345.7716  14.3326 14.86775584513167
IRIDIUM 29              
1 24944U 97051A   25221.84555231  .00000409  00000+0  13266-3 0  9993
2 24944  86.3971 121.4005 0002376  86.7058 273.4411 14.36504698461193
IRIDIUM 33              
1 24946U 97051C   25221.81660865  .00000307  00000+0  10103-3 0  9996
2 24946  86.3884 120.6772 0005673 262.6926  97.3625 14.34920902460447
IRIDIUM 28              
1 24948U 97051E   25222.13324178  .00000341  00000+0  10761-3 0  9996
2 24948  86.3971 118.7644 0001666  84.7941 275.3447 14.37417408461660
IRIDIUM 36              
1 24967U 97056C   25221.87933089  .00000349  00000+0  10964-3 0  9992
2 24967  86.4021 150.4636 0002104  91.5232 268.6207 14.37644448459931
